*******************************************************************************
 Revised: September 28, 2017           Jupiter                              599
 
 PHYSICAL DATA (updated 2018-Aug-15):
  Mass x10^24 (kg)      = 1898.13+-.19    Density (g/cm^3)       =   1.326
  Equat. radius (1 bar) = 71492+-4 km     Polar radius (km)      =  66854+-10
  Vol. Mean Radius (km) = 69911+-6        Flattening             =   0.06487
  Geometric Albedo      = 0.52            Rocky core mass (Mc/M) =  0.0261
  Sid. rot. period (III)= 9h 55m 29.71 s  Sid. rot. rate (rad/s) =  0.00017585 
  Mean solar day, hrs   = ~9.9259         
  GM (km^3/s^2)         = 126686534.911   GM 1-sigma (km^3/s^2)  =  +-1.5
  Equ. grav, ge (m/s^2) = 24.79           Pol. grav, gp (m/s^2)  =  28.34
  Vis. magnitude V(1,0) = -9.40
  Vis. mag. (opposition)= -2.70           Obliquity to orbit     =  3.13 deg
  Sidereal orbit period = 11.861982204 y  Sidereal orbit period  = 4332.589 d
  Mean daily motion     = 0.0831294 deg/d Mean orbit speed, km/s = 13.0697
  Atmos. temp. (1 bar)  = 165+-5 K        Escape speed, km/s    =  59.5           
  A_roche(ice)/Rp       =  2.76           Hill's sphere rad. Rp  = 740
                                 Perihelion   Aphelion     Mean
  Solar Constant (W/m^2)         56           46           51
  Maximum Planetary IR (W/m^2)   13.7         13.4         13.6
  Minimum Planetary IR (W/m^2)   13.7         13.4         13.6
*******************************************************************************
 
 
*******************************************************************************
Ephemeris / WWW_USER Fri Nov  9 15:19:10 2018 Pasadena, USA      / Horizons    
*******************************************************************************
Target body name: Jupiter (599)                   {source: jup341}
Center body name: Earth (399)                     {source: DE431mx}
Center-site name: GEOCENTRIC
*******************************************************************************
Start time      : A.D. 2007-Feb-24 00:00:00.0000 UT      
Stop  time      : A.D. 2007-Feb-26 00:00:00.0000 UT      
Step-size       : 5 minutes
*******************************************************************************
Target pole/equ : IAU_JUPITER                     {West-longitude positive}
Target radii    : 71492.0 x 71492.0 x 66854.0 km  {Equator, meridian, pole}    
Center geodetic : 0.00000000,0.00000000,0.0000000 {E-lon(deg),Lat(deg),Alt(km)}
Center cylindric: 0.00000000,0.00000000,0.0000000 {E-lon(deg),Dxy(km),Dz(km)}
Center pole/equ : High-precision EOP model        {East-longitude positive}
Center radii    : 6378.1 x 6378.1 x 6356.8 km     {Equator, meridian, pole}    
Target primary  : Sun
Vis. interferer : MOON (R_eq= 1737.400) km        {source: DE431mx}
Rel. light bend : Sun, EARTH                      {source: DE431mx}
Rel. lght bnd GM: 1.3271E+11, 3.9860E+05 km^3/s^2                              
Atmos refraction: NO (AIRLESS)
RA format       : DEG
Time format     : CAL 
EOP file        : eop.181108.p190130                                           
EOP coverage    : DATA-BASED 1962-JAN-20 TO 2018-NOV-08. PREDICTS-> 2019-JAN-29
Units conversion: 1 au= 149597870.700 km, c= 299792.458 km/s, 1 day= 86400.0 s 
Table cut-offs 1: Elevation (-90.0deg=NO ),Airmass (>38.000=NO), Daylight (NO )
Table cut-offs 2: Solar elongation (  0.0,180.0=NO ),Local Hour Angle( 0.0=NO )
Table cut-offs 3: RA/DEC angular rate (     0.0=NO )                           
**************************************************************************************************************************************
 Date__(UT)__HR:MN:SC.fff     R.A._(ICRF/J2K)_DEC Ang-diam Ob-lon Ob-lat Sl-lon Sl-lat   NP.ang   NP.dist            delta      deldot
**************************************************************************************************************************************
$$SOE
 2007-Feb-24 03:40:00.000     256.14900 -22.11673 36.03887 166.36  -3.31 176.79  -3.36   5.0622    -16.82 5.47036125061799 -27.5447244
 2007-Feb-24 03:45:00.000     256.14943 -22.11676 36.03923 169.38  -3.31 179.82  -3.36   5.0620    -16.82 5.47030601313087 -27.5450080
 2007-Feb-24 03:50:00.000     256.14987 -22.11680 36.03960 172.41  -3.31 182.84  -3.36   5.0618    -16.82 5.47025077507506 -27.5452915
 2007-Feb-24 03:55:00.000     256.15030 -22.11684 36.03996 175.43  -3.31 185.86  -3.36   5.0617    -16.82 5.47019553645073 -27.5455750
 2007-Feb-24 04:00:00.000     256.15074 -22.11687 36.04033 178.45  -3.31 188.88  -3.36   5.0615    -16.82 5.47014029725807 -27.5458584
 2007-Feb-24 04:05:00.000     256.15117 -22.11691 36.04069 181.47  -3.31 191.91  -3.36   5.0613    -16.82 5.47008505749728 -27.5461416
 2007-Feb-24 04:10:00.000     256.15161 -22.11695 36.04105 184.50  -3.31 194.93  -3.36   5.0611    -16.82 5.47002981716853 -27.5464248
 2007-Feb-24 04:15:00.000     256.15204 -22.11698 36.04142 187.52  -3.31 197.95  -3.36   5.0609    -16.82 5.46997457627200 -27.5467079
 2007-Feb-24 04:20:00.000     256.15248 -22.11702 36.04178 190.54  -3.31 200.98  -3.36   5.0607    -16.82 5.46991933480786 -27.5469909
 2007-Feb-24 04:25:00.000     256.15291 -22.11706 36.04214 193.56  -3.31 204.00  -3.36   5.0606    -16.82 5.46986409277629 -27.5472738
 2007-Feb-24 04:30:00.000     256.15335 -22.11709 36.04251 196.59  -3.31 207.02  -3.36   5.0604    -16.82 5.46980885017745 -27.5475567
 2007-Feb-24 04:35:00.000     256.15378 -22.11713 36.04287 199.61  -3.31 210.04  -3.36   5.0602    -16.82 5.46975360701152 -27.5478394
 2007-Feb-24 04:40:00.000     256.15422 -22.11716 36.04324 202.63  -3.31 213.07  -3.36   5.0600    -16.82 5.46969836327865 -27.5481221
 2007-Feb-24 04:45:00.000     256.15465 -22.11720 36.04360 205.65  -3.31 216.09  -3.36   5.0598    -16.82 5.46964311897899 -27.5484047
 2007-Feb-24 04:50:00.000     256.15508 -22.11724 36.04397 208.68  -3.31 219.11  -3.36   5.0596    -16.82 5.46958787411271 -27.5486872
 2007-Feb-24 04:55:00.000     256.15552 -22.11727 36.04433 211.70  -3.31 222.13  -3.36   5.0594    -16.82 5.46953262867996 -27.5489697
 2007-Feb-24 05:00:00.000     256.15595 -22.11731 36.04469 214.72  -3.31 225.16  -3.36   5.0593    -16.83 5.46947738268087 -27.5492520
 2007-Feb-24 05:05:00.000     256.15639 -22.11735 36.04506 217.74  -3.31 228.18  -3.36   5.0591    -16.83 5.46942213611561 -27.5495343
 2007-Feb-24 05:10:00.000     256.15682 -22.11738 36.04542 220.77  -3.31 231.20  -3.36   5.0589    -16.83 5.46936688898431 -27.5498166
 2007-Feb-24 05:15:00.000     256.15726 -22.11742 36.04579 223.79  -3.31 234.23  -3.36   5.0587    -16.83 5.46931164128711 -27.5500987
 2007-Feb-24 05:20:00.000     256.15769 -22.11746 36.04615 226.81  -3.31 237.25  -3.36   5.0585    -16.83 5.46925639302413 -27.5503808
 2007-Feb-24 05:25:00.000     256.15813 -22.11749 36.04651 229.83  -3.31 240.27  -3.36   5.0583    -16.83 5.46920114419553 -27.5506629
 2007-Feb-24 05:30:00.000     256.15856 -22.11753 36.04688 232.86  -3.31 243.29  -3.36   5.0582    -16.83 5.46914589480141 -27.5509448
 2007-Feb-24 05:35:00.000     256.15899 -22.11757 36.04724 235.88  -3.31 246.32  -3.36   5.0580    -16.83 5.46909064484192 -27.5512267
 2007-Feb-24 05:40:00.000     256.15943 -22.11760 36.04761 238.90  -3.31 249.34  -3.36   5.0578    -16.83 5.46903539431717 -27.5515086
 2007-Feb-24 05:45:00.000     256.15986 -22.11764 36.04797 241.93  -3.31 252.36  -3.36   5.0576    -16.83 5.46898014322727 -27.5517904
 2007-Feb-24 05:50:00.000     256.16030 -22.11768 36.04833 244.95  -3.31 255.38  -3.36   5.0574    -16.83 5.46892489157235 -27.5520721
 2007-Feb-24 05:55:00.000     256.16073 -22.11771 36.04870 247.97  -3.31 258.41  -3.36   5.0572    -16.83 5.46886963935252 -27.5523538
 2007-Feb-24 06:00:00.000     256.16117 -22.11775 36.04906 250.99  -3.31 261.43  -3.36   5.0570    -16.83 5.46881438656788 -27.5526354
 2007-Feb-24 06:05:00.000     256.16160 -22.11778 36.04943 254.02  -3.31 264.45  -3.36   5.0569    -16.83 5.46875913321854 -27.5529170
 2007-Feb-24 06:10:00.000     256.16203 -22.11782 36.04979 257.04  -3.31 267.47  -3.36   5.0567    -16.83 5.46870387930459 -27.5531985
 2007-Feb-24 06:15:00.000     256.16247 -22.11786 36.05016 260.06  -3.31 270.50  -3.36   5.0565    -16.83 5.46864862482616 -27.5534800
 2007-Feb-24 06:20:00.000     256.16290 -22.11789 36.05052 263.08  -3.31 273.52  -3.36   5.0563    -16.83 5.46859336978331 -27.5537614
 2007-Feb-24 06:25:00.000     256.16334 -22.11793 36.05088 266.11  -3.31 276.54  -3.36   5.0561    -16.83 5.46853811417616 -27.5540428
 2007-Feb-24 06:30:00.000     256.16377 -22.11797 36.05125 269.13  -3.31 279.57  -3.36   5.0559    -16.83 5.46848285800479 -27.5543241
 2007-Feb-24 06:35:00.000     256.16420 -22.11800 36.05161 272.15  -3.31 282.59  -3.36   5.0558    -16.83 5.46842760126928 -27.5546054
 2007-Feb-24 06:40:00.000     256.16464 -22.11804 36.05198 275.17  -3.31 285.61  -3.36   5.0556    -16.83 5.46837234396972 -27.5548867
 2007-Feb-24 06:45:00.000     256.16507 -22.11808 36.05234 278.20  -3.31 288.63  -3.36   5.0554    -16.83 5.46831708610618 -27.5551679
 2007-Feb-24 06:50:00.000     256.16551 -22.11811 36.05271 281.22  -3.31 291.66  -3.36   5.0552    -16.83 5.46826182767875 -27.5554491
 2007-Feb-24 06:55:00.000     256.16594 -22.11815 36.05307 284.24  -3.31 294.68  -3.36   5.0550    -16.83 5.46820656868750 -27.5557302
 2007-Feb-24 07:00:00.000     256.16637 -22.11819 36.05343 287.26  -3.31 297.70  -3.36   5.0548    -16.83 5.46815130913250 -27.5560113
 2007-Feb-24 07:05:00.000     256.16681 -22.11822 36.05380 290.29  -3.31 300.72  -3.36   5.0547    -16.83 5.46809604901380 -27.5562924
 2007-Feb-24 07:10:00.000     256.16724 -22.11826 36.05416 293.31  -3.31 303.75  -3.36   5.0545    -16.83 5.46804078833148 -27.5565734
 2007-Feb-24 07:15:00.000     256.16767 -22.11829 36.05453 296.33  -3.31 306.77  -3.36   5.0543    -16.83 5.46798552708561 -27.5568545
